P/2011 UA134 (Spacewatch-PANSTARRS),e,10.4405,40.4014,32.4174,5.610395,0.0741676,0.63008655,328.1217,12/15.0/2023,2000,g 17.5,4.0
# From MPEC 2023-UR6
P/2011 V1 (Boattini),e,7.3843,46.4818,269.6836,3.855088,0.1302125,0.54875957,247.9685,12/15.0/2023,2000,g 15.5,4.0
# From MPC 82718
P/2011 W1 (PANSTARRS),e,3.7174,161.8299,282.8403,4.670235,0.0976553,0.28849872,65.8635,12/15.0/2023,2000,g 11.5,4.0
# From MPC 79342
P/2011 Y2 (Boattini),e,6.3845,309.3397,131.9828,6.234677,0.0633116,0.71093260,272.1714,12/15.0/2023,2000,g 15.0,4.0
# From MPEC 2022-K19
P/2012 B1 (PANSTARRS),e,7.6097,36.2163,162.1756,6.534232,0.0590082,0.40946365,225.3821,12/15.0/2023,2000,g  9.0,4.0
# From MPC 78590
P/2012 C3 (PANSTARRS),e,9.0920,135.3677,344.9542,9.748681,0.0323806,0.63011148,359.9758,10/06.0/2011,2000,g 13.0,4.0
# From MPC 84931
P/2012 F2 (PANSTARRS),e,14.6986,226.9588,33.2663,6.340964,0.0617264,0.54029607,241.2962,12/15.0/2023,2000,g 12.0,4.0
# From MPEC 2022-ED3
P/2012 G1 (PANSTARRS),e,12.1689,283.2580,266.0850,4.164517,0.1159731,0.32903676,135.8779,12/15.0/2023,2000,g 15.0,4.0
# From MPC 80898
P/2012 K3 (Gibbs),e,13.1860,125.8176,172.2184,3.630046,0.1425069,0.42196399,225.4775,12/15.0/2023,2000,g 15.0,4.0
# From MPC 88326
P/2012 NJ (La Sagra),e,84.4853,315.6286,338.4091,8.467690,0.0399997,0.84644839,167.9955,12/15.0/2023,2000,g 14.5,4.0
# From MPC 81470
P/2012 O1 (McNaught),e,7.4277,91.9537,238.3038,3.542253,0.1478376,0.59388546,258.4403,12/15.0/2023,2000,g 17.5,4.0
# From MPC 80899
P/2012 O2 (McNaught),e,24.4634,120.6788,183.4629,3.627581,0.1426522,0.53148028,240.3879,12/15.0/2023,2000,g 17.0,4.0
# From MPC 82320
P/2012 T2 (PANSTARRS),e,12.5702,73.8811,310.8785,5.723433,0.0719812,0.16251554,278.6593,12/15.0/2023,2000,g 10.0,4.0
# From MPC 80900
P/2012 T3 (PANSTARRS),e,9.5575,114.3589,195.5246,6.152871,0.0645784,0.61610699,273.8820,12/15.0/2023,2000,g 15.0,4.0
# From MPC 82720
P/2012 U2 (PANSTARRS),e,10.7631,185.3318,228.3089,7.128400,0.0517864,0.50052925,209.2739,12/15.0/2023,2000,g 12.5,4.0
# From MPC 84024
P/2012 US27 (Siding Spring),e,39.3665,49.2299,0.8426,5.162820,0.0840182,0.64842641,333.8557,12/15.0/2023,2000,g 13.5,4.0
# From MPC 82721
P/2012 WA34 (Lemmon-PANSTARRS),e,6.0789,93.7404,356.4886,4.677738,0.0974205,0.34341743,15.4886,12/15.0/2023,2000,g 13.5,4.0
# From MPC 82721
P/2013 AL76 (Catalina),e,44.8746,146.0129,27.0068,6.499296,0.0594846,0.68676192,239.9389,12/15.0/2023,2000,g 16.0,4.0
# From MPC 91612
P/2013 G1 (Kowalski),e,5.4569,221.3110,51.5018,6.901868,0.0543568,0.51031841,199.1215,12/15.0/2023,2000,g 11.0,4.0
# From MPC 84025
P/2013 G4 (PANSTARRS),e,5.9174,339.5966,214.5943,4.435488,0.1055096,0.40903616,57.3927,12/15.0/2023,2000,g 15.0,4.0
# From MPC 91613
P/2013 J2 (McNaught),e,15.5088,289.3449,37.8688,6.224718,0.0634636,0.65671946,238.4942,12/15.0/2023,2000,g 13.0,4.0
# From MPC 86229
P/2013 N3 (PANSTARRS),e,2.1706,17.5335,323.9510,7.399209,0.0489696,0.59227607,175.6664,12/15.0/2023,2000,g 13.0,4.0
# From MPC 85834
P/2013 N5 (PANSTARRS),e,23.4492,187.1731,176.9515,6.797166,0.0556176,0.73227670,211.8980,12/15.0/2023,2000,g 17.0,4.0
# From MPC 85834
P/2013 P1 (PANSTARRS),e,18.7083,160.6331,138.2405,8.587736,0.0391639,0.60354020,154.5404,12/15.0/2023,2000,g 12.0,4.0
# From MPEC 2022-V95
P/2013 R3 (Catalina-PANSTARRS),e,0.8651,342.0418,11.2921,3.030881,0.1867888,0.27554804,341.9645,12/15.0/2023,2000,g 14.0,4.0
# From unp
P/2013 R3-A (Catalina-PANSTARRS),e,0.8642,341.9967,11.3709,3.030638,0.1868113,0.27547921,342.0320,12/15.0/2023,2000,g  9.0,4.0
# From MPEC 2015-M77
P/2013 R3-B (Catalina-PANSTARRS),e,0.8654,342.0526,11.3058,3.030855,0.1867911,0.27552416,341.9598,12/15.0/2023,2000,g  9.0,4.0
# From MPC 85835
P/2013 T1 (PANSTARRS),e,24.2905,10.1069,346.1696,5.855253,0.0695642,0.62410489,262.8065,12/15.0/2023,2000,g 16.5,4.0
# From MPC 86643
P/2013 T2 (Schwartz),e,9.4528,0.8208,345.5816,3.492583,0.1510024,0.50068837,222.7341,12/15.0/2023,2000,g 16.0,4.0
# From MPC 91613
P/2013 W1 (PANSTARRS),e,4.6978,117.8296,1.2220,3.486396,0.1514045,0.59332140,180.2452,12/15.0/2023,2000,g 17.5,4.0
# From MPC101095
P/2013 YG46 (Spacewatch),e,7.8583,48.8442,242.6873,3.279170,0.1659809,0.45547291,56.8302,12/15.0/2023,2000,g 10.0,4.0
# From MPC 89728
P/2014 A2 (Hill),e,24.5554,106.6479,356.1454,5.925569,0.0683296,0.64623511,253.9866,12/15.0/2023,2000,g 15.0,4.0
# From MPC 92981
P/2014 A3 (PANSTARRS),e,13.7165,230.0761,214.1258,4.607199,0.0996664,0.24639809,23.5323,12/15.0/2023,2000,g 12.0,4.0
# From MPC102095
P/2014 C1 (TOTAS),e,2.6919,167.8828,24.0051,3.029079,0.1869555,0.45187478,317.9562,12/15.0/2023,2000,g 15.5,4.0
# From MPEC 2022-WD2
C/2014 F3 (Sheppard-Trujillo),e,6.5228,326.0723,4.9485,14.45388,0.0179361,0.60429832,16.6821,12/15.0/2023,2000,g  6.0,4.0
# From MPC 98560
P/2014 L2 (NEOWISE),e,5.1970,149.3600,182.7154,6.307463,0.0622189,0.64724017,213.6294,12/15.0/2023,2000,g 12.0,4.0
# From MPC 90769
P/2014 L3 (Hill),e,6.2635,115.5206,178.6949,8.181593,0.0421160,0.77187597,145.6154,12/15.0/2023,2000,g 16.0,4.0
# From MPC 91614
P/2014 M4 (PANSTARRS),e,3.3447,263.2090,148.0619,5.865710,0.0693782,0.59605848,226.7978,12/15.0/2023,2000,g 15.0,4.0
# From MPEC 2022-K19
P/2014 MG4 (Spacewatch-PANSTARRS),e,9.3646,311.7065,298.9763,5.014067,0.0877847,0.25875197,336.5526,12/15.0/2023,2000,g  9.5,4.0
# From MPC 98560
P/2014 O3 (PANSTARRS),e,7.7912,87.6311,204.7917,7.582270,0.0472069,0.38334161,166.7691,12/15.0/2023,2000,g 10.5,4.0
# From MPEC 2023-XP6
C/2014 OG392 (PANSTARRS),e,9.0328,145.8175,254.7426,12.25990,0.0229601,0.18646483,16.6640,12/15.0/2023,2000,g  6.0,4.0
# From MPC 91616
P/2014 U4 (PANSTARRS),e,6.4270,11.9228,347.8475,3.510356,0.1498571,0.46448309,155.0172,12/15.0/2023,2000,g 18.0,4.0
# From MPEC 2023-XP6
C/2014 UN271 (Bernardinelli-Bernstein),h,01/18.8802/2031,95.4339,189.9096,326.1483,1.002739,10.954217,2000,2.5,3.2
# From MPC 95211
P/2014 V1 (PANSTARRS),e,22.5169,166.2128,177.6612,5.479519,0.0768405,0.53405478,249.1384,12/15.0/2023,2000,g 14.0,4.0
# From MPC105542
P/2014 W4 (PANSTARRS),e,15.2869,33.3445,67.6263,6.584014,0.0583402,0.35426899,169.3825,12/15.0/2023,2000,g 11.0,4.0
# From MPC 94281
P/2014 X1 (Elenin),e,26.0527,61.5552,33.8929,6.202033,0.0638121,0.71030609,208.5055,12/15.0/2023,2000,g 15.0,4.0
# From MPC 92275
P/2015 A3 (PANSTARRS),e,172.5472,277.4140,249.5749,7.817613,0.0450913,0.85029039,145.2369,12/15.0/2023,2000,g 20.0,4.0
# From MPC 99270
P/2015 B1 (PANSTARRS),e,18.0672,352.8863,188.7831,9.483344,0.0337491,0.36630656,101.9658,12/15.0/2023,2000,g  8.5,4.0
# From MPC109141
P/2015 B4 (Lemmon-PANSTARRS),e,1.7659,266.1032,227.1463,8.510199,0.0397004,0.56142876,128.4647,12/15.0/2023,2000,g 11.0,4.0
# From MPC101096
P/2015 C1 (TOTAS-Gibbs),e,13.9403,348.7865,178.0232,6.567416,0.0585615,0.56259086,184.9248,12/15.0/2023,2000,g 12.5,4.0
# From MPC109141
P/2015 D5 (Kowalski),e,20.5482,74.0844,39.6011,8.947792,0.0368239,0.49090433,130.4196,12/15.0/2023,2000,g  9.0,4.0
# From MPC 96866
P/2015 D6 (Lemmon-PANSTARRS),e,20.2187,45.7630,124.9575,7.130288,0.0517659,0.36199813,160.2173,12/15.0/2023,2000,g 10.5,4.0
# From MPEC 2023-XP6
P/2015 HG16 (PANSTARRS),e,19.0009,57.0662,46.7576,4.800758,0.0937000,0.34982965,331.2988,12/15.0/2023,2000,g 12.5,4.0
# From MPC 95213
P/2015 K5 (PANSTARRS),e,39.9371,134.2608,106.2330,6.727602,0.0564825,0.55146523,176.3978,12/15.0/2023,2000,g 13.5,4.0
# From MPC107684
P/2015 M2 (PANSTARRS),e,3.9682,86.7029,225.9564,7.249759,0.0504915,0.17873206,152.3580,12/15.0/2023,2000,g  8.5,4.0
# From MPC 99819
P/2015 P4 (PANSTARRS),e,8.7198,104.7208,280.6705,6.046742,0.0662860,0.58572791,190.9289,12/15.0/2023,2000,g 14.0,4.0
# From MPEC 2022-K19
P/2015 PD229 (Cameron-ISON),e,2.0232,342.7280,352.7173,7.199252,0.0510238,0.32658854,155.2530,12/15.0/2023,2000,g 11.5,2.0
# From MPC 96867
P/2015 Q2 (Pimentel),e,146.5601,228.5622,244.6806,7.352517,0.0494368,0.75116699,149.2039,12/15.0/2023,2000,g 15.5,4.0
# From MPC 98562
P/2015 R1 (PANSTARRS),e,22.6889,48.3740,300.5524,5.881635,0.0690966,0.63383988,213.3966,12/15.0/2023,2000,g 14.0,4.0
# From MPC 95734
P/2015 R2 (PANSTARRS),e,15.4815,168.6139,149.8584,4.483577,0.1038167,0.45247127,321.9332,12/15.0/2023,2000,g 14.5,4.0
# From MPC102953
P/2015 TO19 (Lemmon-PANSTARRS),e,6.5037,321.6631,89.2353,4.549439,0.1015704,0.35967455,287.9709,12/15.0/2023,2000,g 14.0,4.0
# From MPC110080
P/2015 TP200 (LINEAR),e,8.7828,6.9847,82.4650,7.262413,0.0503596,0.53694938,130.9815,12/15.0/2023,2000,g 11.0,4.0
# From MPC101098
P/2015 W2 (Catalina),e,11.6139,294.1527,117.5789,7.290937,0.0500644,0.63559372,149.7563,12/15.0/2023,2000,g 13.0,4.0
# From MPEC 2023-J29
P/2015 X3 (PANSTARRS),e,24.4194,77.2563,306.9022,5.001459,0.0881169,0.44013070,268.0831,12/15.0/2023,2000,g 15.0,4.0
# From MPC115881
P/2015 X6 (PANSTARRS),e,4.5654,106.9380,329.8198,2.751406,0.2159594,0.17353013,249.0328,12/15.0/2023,2000,g 16.0,4.0
# From MPC100282
P/2016 A2 (Christensen),e,26.4054,291.5955,141.3197,4.753607,0.0950975,0.27122009,295.5317,12/15.0/2023,2000,g 11.5,4.0
# From MPEC 2022-OB6
P/2016 A3 (PANSTARRS),e,8.5135,187.1906,340.8360,7.873891,0.0446087,0.38626052,108.1687,12/15.0/2023,2000,g 10.0,4.0
# From MPC102098
P/2016 A7 (PANSTARRS),e,16.6086,221.4617,352.4875,5.036267,0.0872049,0.56538692,249.4144,12/15.0/2023,2000,g 16.0,4.0
# From MPEC 2021-P47
P/2016 G1 (PANSTARRS),e,10.9711,204.0164,111.1326,2.583661,0.2373290,0.21031862,237.0191,12/15.0/2023,2000,g 14.0,4.0
# From MPEC 2017-D91
P/2016 J1-A (PANSTARRS),e,14.3235,199.9162,47.4840,3.179261,0.1738660,0.22718328,114.8567,12/15.0/2023,2000,g 16.5,4.0
# From MPEC 2017-A77
P/2016 J1-B (PANSTARRS),e,14.3263,199.9215,47.3757,3.178902,0.1738955,0.22702933,115.0134,12/15.0/2023,2000,g 17.0,4.0
# From MPC102099
P/2016 P1 (PANSTARRS),e,24.3863,319.5327,270.5509,3.201434,0.1720629,0.28860091,157.7657,12/15.0/2023,2000,g 15.0,4.0
# From MPEC 2023-R20
C/2016 Q2 (PANSTARRS),h,05/12.3897/2021,109.3650,322.3278,84.5557,1.003289,7.081244,2000,6.0,4.0
# From MPEC 2022-K19
